[{"OBJECT_NAME":"ONEWEB-0050","OBJECT_ID":"2020-020AF","EPOCH":"2026-01-20T03:09:12.415680","MEAN_MOTION":14.89755198,"ECCENTRICITY":0.00049372,"INCLINATION":88.9209,"RA_OF_ASC_NODE":253.4036,"ARG_OF_PERICENTER":121.2555,"MEAN_ANOMALY":238.9158,"EPHEMERIS_TYPE":0,"CLASSIFICATION_TYPE":"U","NORAD_CAT_ID":45453,"ELEMENT_SET_NO":999,"REV_AT_EPOCH":31833,"BSTAR":0.00043586728,"MEAN_MOTION_DOT":4.197e-5,"MEAN_MOTION_DDOT":0},{"OBJECT_NAME":"ONEWEB-0034","OBJECT_ID":"2020-020AG","EPOCH":"2026-01-20T08:07:40.166976","MEAN_MOTION":13.11418632,"ECCENTRICITY":0.00017604,"INCLINATION":87.8825,"RA_OF_ASC_NODE":50.4848,"ARG_OF_PERICENTER":93.6584,"MEAN_ANOMALY":266.4745,"EPHEMERIS_TYPE":0,"CLASSIFICATION_TYPE":"U","NORAD_CAT_ID":45454,"ELEMENT_SET_NO":999,"REV_AT_EPOCH":28321,"BSTAR":-0.0014445358,"MEAN_MOTION_DOT":-4.99e-6,"MEAN_MOTION_DDOT":0},{"OBJECT_NAME":"ONEWEB-0060","OBJECT_ID":"2020-020AH","EPOCH":"2026-01-20T07:26:09.923712","MEAN_MOTION":13.11414547,"ECCENTRICITY":0.000177,"INCLINATION":87.8816,"RA_OF_ASC_NODE":50.5048,"ARG_OF_PERICENTER":60.9673,"MEAN_ANOMALY":299.1632,"EPHEMERIS_TYPE":0,"CLASSIFICATION_TYPE":"U","NORAD_CAT_ID":45455,"ELEMENT_SET_NO":999,"REV_AT_EPOCH":28316,"BSTAR":0.0010114951,"MEAN_MOTION_DOT":3.71e-6,"MEAN_MOTION_DDOT":0},{"OBJECT_NAME":"ONEWEB-0086","OBJECT_ID":"2020-020AJ","EPOCH":"2026-01-20T03:15:54.737280","MEAN_MOTION":13.11419291,"ECCENTRICITY":0.00011841,"INCLINATION":87.8827,"RA_OF_ASC_NODE":50.5227,"ARG_OF_PERICENTER":77.5747,"MEAN_ANOMALY":282.5513,"EPHEMERIS_TYPE":0,"CLASSIFICATION_TYPE":"U","NORAD_CAT_ID":45456,"ELEMENT_SET_NO":999,"REV_AT_EPOCH":28320,"BSTAR":0.0012902634,"MEAN_MOTION_DOT":4.7e-6,"MEAN_MOTION_DDOT":0},{"OBJECT_NAME":"ONEWEB-0088","OBJECT_ID":"2020-020AK","EPOCH":"2026-01-20T02:44:08.801664","MEAN_MOTION":13.11418021,"ECCENTRICITY":0.00021083,"INCLINATION":87.8837,"RA_OF_ASC_NODE":50.4861,"ARG_OF_PERICENTER":91.5642,"MEAN_ANOMALY":268.5728,"EPHEMERIS_TYPE":0,"CLASSIFICATION_TYPE":"U","NORAD_CAT_ID":45457,"ELEMENT_SET_NO":999,"REV_AT_EPOCH":28313,"BSTAR":-0.0014309896,"MEAN_MOTION_DOT":-4.94e-6,"MEAN_MOTION_DDOT":0},{"OBJECT_NAME":"ONEWEB-0102","OBJECT_ID":"2020-100A","EPOCH":"2026-01-20T05:36:45.901440","MEAN_MOTION":13.12442343,"ECCENTRICITY":0.00015522,"INCLINATION":87.8924,"RA_OF_ASC_NODE":20.0583,"ARG_OF_PERICENTER":84.8584,"MEAN_ANOMALY":275.2722,"EPHEMERIS_TYPE":0,"CLASSIFICATION_TYPE":"U","NORAD_CAT_ID":47258,"ELEMENT_SET_NO":999,"REV_AT_EPOCH":24532,"BSTAR":-0.00022554533,"MEAN_MOTION_DOT":-6.8e-7,"MEAN_MOTION_DDOT":0},{"OBJECT_NAME":"ONEWEB-0109","OBJECT_ID":"2020-100B","EPOCH":"2026-01-20T05:48:56.787552","MEAN_MOTION":13.12443398,"ECCENTRICITY":0.00016841,"INCLINATION":87.8929,"RA_OF_ASC_NODE":20.0277,"ARG_OF_PERICENTER":91.4132,"MEAN_ANOMALY":268.7189,"EPHEMERIS_TYPE":0,"CLASSIFICATION_TYPE":"U","NORAD_CAT_ID":47259,"ELEMENT_SET_NO":999,"REV_AT_EPOCH":24515,"BSTAR":-0.00072078312,"MEAN_MOTION_DOT":-2.47e-6,"MEAN_MOTION_DDOT":0},{"OBJECT_NAME":"ONEWEB-0110","OBJECT_ID":"2020-100C","EPOCH":"2026-01-20T06:27:59.475168","MEAN_MOTION":13.12445407,"ECCENTRICITY":0.00015805,"INCLINATION":87.8932,"RA_OF_ASC_NODE":20.0068,"ARG_OF_PERICENTER":81.3809,"MEAN_ANOMALY":278.7499,"EPHEMERIS_TYPE":0,"CLASSIFICATION_TYPE":"U","NORAD_CAT_ID":47260,"ELEMENT_SET_NO":999,"REV_AT_EPOCH":24532,"BSTAR":-2.1829617e-5,"MEAN_MOTION_DOT":5.0e-8,"MEAN_MOTION_DDOT":0},{"OBJECT_NAME":"ONEWEB-0111","OBJECT_ID":"2020-100D","EPOCH":"2026-01-20T05:22:06.463488","MEAN_MOTION":13.12443827,"ECCENTRICITY":0.00017743,"INCLINATION":87.8932,"RA_OF_ASC_NODE":20.0341,"ARG_OF_PERICENTER":83.6375,"MEAN_ANOMALY":276.4956,"EPHEMERIS_TYPE":0,"CLASSIFICATION_TYPE":"U","NORAD_CAT_ID":47261,"ELEMENT_SET_NO":999,"REV_AT_EPOCH":24515,"BSTAR":0.00076384216,"MEAN_MOTION_DOT":2.88e-6,"MEAN_MOTION_DDOT":0},{"OBJECT_NAME":"ONEWEB-0114","OBJECT_ID":"2020-100E","EPOCH":"2026-01-20T00:36:40.764384","MEAN_MOTION":13.12443993,"ECCENTRICITY":0.00017913,"INCLINATION":87.8935,"RA_OF_ASC_NODE":20.069,"ARG_OF_PERICENTER":100.3092,"MEAN_ANOMALY":259.8238,"EPHEMERIS_TYPE":0,"CLASSIFICATION_TYPE":"U","NORAD_CAT_ID":47262,"ELEMENT_SET_NO":999,"REV_AT_EPOCH":24508,"BSTAR":-0.0012790585,"MEAN_MOTION_DOT":-4.47e-6,"MEAN_MOTION_DDOT":0},{"OBJECT_NAME":"ONEWEB-0117","OBJECT_ID":"2020-100F","EPOCH":"2026-01-20T05:53:50.314272","MEAN_MOTION":13.12442712,"ECCENTRICITY":0.00017553,"INCLINATION":87.893,"RA_OF_ASC_NODE":20.021,"ARG_OF_PERICENTER":87.8576,"MEAN_ANOMALY":272.2753,"EPHEMERIS_TYPE":0,"CLASSIFICATION_TYPE":"U","NORAD_CAT_ID":47263,"ELEMENT_SET_NO":999,"REV_AT_EPOCH":24512,"BSTAR":-0.001092309,"MEAN_MOTION_DOT":-3.8e-6,"MEAN_MOTION_DDOT":0},{"OBJECT_NAME":"ONEWEB-0118","OBJECT_ID":"2020-100G","EPOCH":"2026-01-20T06:42:39.276864","MEAN_MOTION":13.12444351,"ECCENTRICITY":0.00020163,"INCLINATION":87.8933,"RA_OF_ASC_NODE":20.0149,"ARG_OF_PERICENTER":96.1627,"MEAN_ANOMALY":263.9732,"EPHEMERIS_TYPE":0,"CLASSIFICATION_TYPE":"U","NORAD_CAT_ID":47264,"ELEMENT_SET_NO":999,"REV_AT_EPOCH":24532,"BSTAR":0.00085102856,"MEAN_MOTION_DOT":3.19e-6,"MEAN_MOTION_DDOT":0},{"OBJECT_NAME":"ONEWEB-0119","OBJECT_ID":"2020-100H","EPOCH":"2026-01-20T05:29:26.939328","MEAN_MOTION":13.12443409,"ECCENTRICITY":0.00017426,"INCLINATION":87.8923,"RA_OF_ASC_NODE":20.0554,"ARG_OF_PERICENTER":88.857,"MEAN_ANOMALY":271.2759,"EPHEMERIS_TYPE":0,"CLASSIFICATION_TYPE":"U","NORAD_CAT_ID":47265,"ELEMENT_SET_NO":999,"REV_AT_EPOCH":24529,"BSTAR":0.00029535,"MEAN_MOTION_DOT":1.19e-6,"MEAN_MOTION_DDOT":0},{"OBJECT_NAME":"ONEWEB-0120","OBJECT_ID":"2020-100J","EPOCH":"2026-01-20T06:03:47.663136","MEAN_MOTION":13.12443027,"ECCENTRICITY":0.00017629,"INCLINATION":87.8921,"RA_OF_ASC_NODE":20.0517,"ARG_OF_PERICENTER":91.6331,"MEAN_ANOMALY":268.4999,"EPHEMERIS_TYPE":0,"CLASSIFICATION_TYPE":"U","NORAD_CAT_ID":47266,"ELEMENT_SET_NO":999,"REV_AT_EPOCH":24532,"BSTAR":-0.0011058404,"MEAN_MOTION_DOT":-3.85e-6,"MEAN_MOTION_DDOT":0},{"OBJECT_NAME":"ONEWEB-0121","OBJECT_ID":"2020-100K","EPOCH":"2026-01-20T05:46:30.913248","MEAN_MOTION":13.12441315,"ECCENTRICITY":0.00016713,"INCLINATION":87.893,"RA_OF_ASC_NODE":20.0256,"ARG_OF_PERICENTER":81.9345,"MEAN_ANOMALY":278.1973,"EPHEMERIS_TYPE":0,"CLASSIFICATION_TYPE":"U","NORAD_CAT_ID":47267,"ELEMENT_SET_NO":999,"REV_AT_EPOCH":24523,"BSTAR":-0.00076513877,"MEAN_MOTION_DOT":-2.63e-6,"MEAN_MOTION_DDOT":0},{"OBJECT_NAME":"ONEWEB-0122","OBJECT_ID":"2020-100L","EPOCH":"2026-01-20T00:09:38.273472","MEAN_MOTION":13.12440409,"ECCENTRICITY":0.00016286,"INCLINATION":87.8932,"RA_OF_ASC_NODE":20.0748,"ARG_OF_PERICENTER":89.4389,"MEAN_ANOMALY":270.6926,"EPHEMERIS_TYPE":0,"CLASSIFICATION_TYPE":"U","NORAD_CAT_ID":47268,"ELEMENT_SET_NO":999,"REV_AT_EPOCH":24511,"BSTAR":-0.00036533638,"MEAN_MOTION_DOT":-1.19e-6,"MEAN_MOTION_DDOT":0}]
