ONEWEB-0050             
1 45453U 20020AF  26020.13139370  .00004197  00000+0  43587-3 0  9992
2 45453  88.9209 253.4036 0004937 121.2555 238.9158 14.89755198318337
ONEWEB-0034             
1 45454U 20020AG  26020.33865934 -.00000499  00000+0 -14445-2 0  9990
2 45454  87.8825  50.4848 0001760  93.6584 266.4745 13.11418632283210
ONEWEB-0060             
1 45455U 20020AH  26020.30983708  .00000371  00000+0  10115-2 0  9995
2 45455  87.8816  50.5048 0001770  60.9673 299.1632 13.11414547283164
ONEWEB-0086             
1 45456U 20020AJ  26020.13605020  .00000470  00000+0  12903-2 0  9992
2 45456  87.8827  50.5227 0001184  77.5747 282.5513 13.11419291283201
ONEWEB-0088             
1 45457U 20020AK  26020.11399076 -.00000494  00000+0 -14310-2 0  9994
2 45457  87.8837  50.4861 0002108  91.5642 268.5728 13.11418021283137
ONEWEB-0102             
1 47258U 20100A   26020.23386460 -.00000068  00000+0 -22555-3 0  9998
2 47258  87.8924  20.0583 0001552  84.8584 275.2722 13.12442343245324
ONEWEB-0109             
1 47259U 20100B   26020.24232393 -.00000247  00000+0 -72078-3 0  9999
2 47259  87.8929  20.0277 0001684  91.4132 268.7189 13.12443398245155
ONEWEB-0110             
1 47260U 20100C   26020.26943837  .00000005  00000+0 -21830-4 0  9997
2 47260  87.8932  20.0068 0001580  81.3809 278.7499 13.12445407245320
ONEWEB-0111             
1 47261U 20100D   26020.22368592  .00000288  00000+0  76384-3 0  9998
2 47261  87.8932  20.0341 0001774  83.6375 276.4956 13.12443827245151
ONEWEB-0114             
1 47262U 20100E   26020.02547181 -.00000447  00000+0 -12791-2 0  9990
2 47262  87.8935  20.0690 0001791 100.3092 259.8238 13.12443993245088
ONEWEB-0117             
1 47263U 20100F   26020.24572123 -.00000380  00000+0 -10923-2 0  9990
2 47263  87.8930  20.0210 0001755  87.8576 272.2753 13.12442712245122
ONEWEB-0118             
1 47264U 20100G   26020.27962126  .00000319  00000+0  85103-3 0  9993
2 47264  87.8933  20.0149 0002016  96.1627 263.9732 13.12444351245325
ONEWEB-0119             
1 47265U 20100H   26020.22878402  .00000119  00000+0  29535-3 0  9997
2 47265  87.8923  20.0554 0001742  88.8570 271.2759 13.12443409245295
ONEWEB-0120             
1 47266U 20100J   26020.25263499 -.00000385  00000+0 -11058-2 0  9992
2 47266  87.8921  20.0517 0001762  91.6331 268.4999 13.12443027245326
ONEWEB-0121             
1 47267U 20100K   26020.24063557 -.00000263  00000+0 -76514-3 0  9999
2 47267  87.8930  20.0256 0001671  81.9345 278.1973 13.12441315245231
ONEWEB-0122             
1 47268U 20100L   26020.00669298 -.00000119  00000+0 -36534-3 0  9996
2 47268  87.8932  20.0748 0001628  89.4389 270.6926 13.12440409245118
